[{"OBJECT_NAME":"STARLINK-5647","OBJECT_ID":"2023-013AA","EPOCH":"2026-03-09T00:41:39.977088","MEAN_MOTION":15.02529384,"ECCENTRICITY":8.646e-5,"INCLINATION":43.0032,"RA_OF_ASC_NODE":303.5985,"ARG_OF_PERICENTER":280.4764,"MEAN_ANOMALY":79.5981,"EPHEMERIS_TYPE":0,"CLASSIFICATION_TYPE":"U","NORAD_CAT_ID":55355,"ELEMENT_SET_NO":999,"REV_AT_EPOCH":17160,"BSTAR":-5.2931989e-5,"MEAN_MOTION_DOT":-9.18e-6,"MEAN_MOTION_DDOT":0},{"OBJECT_NAME":"COSMOS 2251 DEB","OBJECT_ID":"1993-036BC","EPOCH":"2026-03-09T15:03:07.178688","MEAN_MOTION":15.0931248,"ECCENTRICITY":0.0027782,"INCLINATION":73.8339,"RA_OF_ASC_NODE":121.9492,"ARG_OF_PERICENTER":197.5511,"MEAN_ANOMALY":285.2146,"EPHEMERIS_TYPE":0,"CLASSIFICATION_TYPE":"U","NORAD_CAT_ID":33811,"ELEMENT_SET_NO":999,"REV_AT_EPOCH":91327,"BSTAR":0.0014101,"MEAN_MOTION_DOT":0.00022722,"MEAN_MOTION_DDOT":0}]
